{
  "type": "FeatureCollection",
  "features": [
    {
      "type": "Feature",
      "properties": {
        "norad_id": 47059,
        "name": "COSMOS 2251 DEB",
        "group": "cosmos-2251-debris",
        "lat": -47.54277009875242,
        "lon": -144.07788616321054,
        "alt_km": 534.9776282370558,
        "timestamp": "2025-12-13T07:35:41.902850+00:00",
        "meta_object_name": "COSMOS 2251 DEB",
        "meta_object_id": "1993-036BXP",
        "meta_epoch": "2025-12-12T01:57:33.172416",
        "meta_mean_motion": 15.12724951,
        "meta_eccentricity": 0.00125007,
        "meta_inclination": 73.9813,
        "meta_ra_of_asc_node": 236.7898,
        "meta_arg_of_pericenter": 50.1346,
        "meta_mean_anomaly": 17.873,
        "meta_ephemeris_type": 0,
        "meta_classification_type": "U",
        "meta_norad_cat_id": 47059,
        "meta_element_set_no": 999,
        "meta_rev_at_epoch": 8295,
        "meta_bstar": 0.0036258701,
        "meta_mean_motion_dot": 0.00064189,
        "meta_mean_motion_ddot": 0,
        "tle_line1": "1 47059U 93036BXP 25346.08163394  .00064189  00000+0  36259-2 0  9994",
        "tle_line2": "2 47059  73.9813 236.7898 0012500  50.1346  17.8730 15.12724951 82955"
      },
      "geometry": {
        "type": "Point",
        "coordinates": [
          -144.07788616321054,
          -47.54277009875242
        ]
      }
    },
    {
      "type": "Feature",
      "properties": {
        "norad_id": 47062,
        "name": "COSMOS 2251 DEB",
        "group": "cosmos-2251-debris",
        "lat": 51.10468002574998,
        "lon": 97.93735314558039,
        "alt_km": 1189.298348325371,
        "timestamp": "2025-12-13T07:35:41.902859+00:00",
        "meta_object_name": "COSMOS 2251 DEB",
        "meta_object_id": "1993-036BXS",
        "meta_epoch": "2025-12-12T12:09:44.037216",
        "meta_mean_motion": 13.71945278,
        "meta_eccentricity": 0.03234067,
        "meta_inclination": 74.0839,
        "meta_ra_of_asc_node": 78.5596,
        "meta_arg_of_pericenter": 204.4236,
        "meta_mean_anomaly": 174.0452,
        "meta_ephemeris_type": 0,
        "meta_classification_type": "U",
        "meta_norad_cat_id": 47062,
        "meta_element_set_no": 999,
        "meta_rev_at_epoch": 55599,
        "meta_bstar": 0.0023728803,
        "meta_mean_motion_dot": 3.104e-05,
        "meta_mean_motion_ddot": 0,
        "tle_line1": "1 47062U 93036BXS 25346.50675969  .00003104  00000+0  23729-2 0  9999",
        "tle_line2": "2 47062  74.0839  78.5596 0323406 204.4236 174.0452 13.71945278555994"
      },
      "geometry": {
        "type": "Point",
        "coordinates": [
          97.93735314558039,
          51.10468002574998
        ]
      }
    },
    {
      "type": "Feature",
      "properties": {
        "norad_id": 47068,
        "name": "COSMOS 2251 DEB",
        "group": "cosmos-2251-debris",
        "lat": -15.890687829259303,
        "lon": -162.2975352095062,
        "alt_km": 712.2022210275654,
        "timestamp": "2025-12-13T07:35:41.902868+00:00",
        "meta_object_name": "COSMOS 2251 DEB",
        "meta_object_id": "1993-036BXY",
        "meta_epoch": "2025-12-12T06:53:13.112448",
        "meta_mean_motion": 14.53147025,
        "meta_eccentricity": 0.00183376,
        "meta_inclination": 74.024,
        "meta_ra_of_asc_node": 204.3241,
        "meta_arg_of_pericenter": 291.4088,
        "meta_mean_anomaly": 68.5117,
        "meta_ephemeris_type": 0,
        "meta_classification_type": "U",
        "meta_norad_cat_id": 47068,
        "meta_element_set_no": 999,
        "meta_rev_at_epoch": 61750,
        "meta_bstar": 0.0013365737,
        "meta_mean_motion_dot": 5.521e-05,
        "meta_mean_motion_ddot": 0,
        "tle_line1": "1 47068U 93036BXY 25346.28695732  .00005521  00000+0  13366-2 0  9991",
        "tle_line2": "2 47068  74.0240 204.3241 0018337 291.4088  68.5117 14.53147025617503"
      },
      "geometry": {
        "type": "Point",
        "coordinates": [
          -162.2975352095062,
          -15.890687829259303
        ]
      }
    },
    {
      "type": "Feature",
      "properties": {
        "norad_id": 47073,
        "name": "COSMOS 2251 DEB",
        "group": "cosmos-2251-debris",
        "lat": 45.06663837223307,
        "lon": -142.53820442711984,
        "alt_km": 988.4565897497641,
        "timestamp": "2025-12-13T07:35:41.902877+00:00",
        "meta_object_name": "COSMOS 2251 DEB",
        "meta_object_id": "1993-036BYD",
        "meta_epoch": "2025-12-10T22:57:37.610784",
        "meta_mean_motion": 14.04716581,
        "meta_eccentricity": 0.0162103,
        "meta_inclination": 74.0823,
        "meta_ra_of_asc_node": 204.9451,
        "meta_arg_of_pericenter": 243.6176,
        "meta_mean_anomaly": 114.8243,
        "meta_ephemeris_type": 0,
        "meta_classification_type": "U",
        "meta_norad_cat_id": 47073,
        "meta_element_set_no": 999,
        "meta_rev_at_epoch": 60336,
        "meta_bstar": 0.00063847,
        "meta_mean_motion_dot": 1.125e-05,
        "meta_mean_motion_ddot": 0,
        "tle_line1": "1 47073U 93036BYD 25344.95668531  .00001125  00000+0  63847-3 0  9992",
        "tle_line2": "2 47073  74.0823 204.9451 0162103 243.6176 114.8243 14.04716581603362"
      },
      "geometry": {
        "type": "Point",
        "coordinates": [
          -142.53820442711984,
          45.06663837223307
        ]
      }
    },
    {
      "type": "Feature",
      "properties": {
        "norad_id": 47074,
        "name": "COSMOS 2251 DEB",
        "group": "cosmos-2251-debris",
        "lat": -72.44630302022323,
        "lon": -167.96851735080975,
        "alt_km": 746.0668553704436,
        "timestamp": "2025-12-13T07:35:41.902886+00:00",
        "meta_object_name": "COSMOS 2251 DEB",
        "meta_object_id": "1993-036BYE",
        "meta_epoch": "2025-12-08T16:49:34.505184",
        "meta_mean_motion": 14.3557053,
        "meta_eccentricity": 0.01448795,
        "meta_inclination": 74.0911,
        "meta_ra_of_asc_node": 316.0985,
        "meta_arg_of_pericenter": 343.8802,
        "meta_mean_anomaly": 196.5757,
        "meta_ephemeris_type": 0,
        "meta_classification_type": "U",
        "meta_norad_cat_id": 47074,
        "meta_element_set_no": 999,
        "meta_rev_at_epoch": 2624,
        "meta_bstar": 0.0031554894,
        "meta_mean_motion_dot": 0.00010228,
        "meta_mean_motion_ddot": 0,
        "tle_line1": "1 47074U 93036BYE 25342.70109381  .00010228  00000+0  31555-2 0  9991",
        "tle_line2": "2 47074  74.0911 316.0985 0144879 343.8802 196.5757 14.35570530 26246"
      },
      "geometry": {
        "type": "Point",
        "coordinates": [
          -167.96851735080975,
          -72.44630302022323
        ]
      }
    },
    {
      "type": "Feature",
      "properties": {
        "norad_id": 47116,
        "name": "COSMOS 2251 DEB",
        "group": "cosmos-2251-debris",
        "lat": -56.83053955155544,
        "lon": 85.54685618287519,
        "alt_km": 579.7489979673519,
        "timestamp": "2025-12-13T07:35:41.902896+00:00",
        "meta_object_name": "COSMOS 2251 DEB",
        "meta_object_id": "1993-036BYJ",
        "meta_epoch": "2025-12-11T00:06:23.501088",
        "meta_mean_motion": 14.98044349,
        "meta_eccentricity": 0.00215318,
        "meta_inclination": 74.0231,
        "meta_ra_of_asc_node": 244.2359,
        "meta_arg_of_pericenter": 338.282,
        "meta_mean_anomaly": 38.4094,
        "meta_ephemeris_type": 0,
        "meta_classification_type": "U",
        "meta_norad_cat_id": 47116,
        "meta_element_set_no": 999,
        "meta_rev_at_epoch": 59485,
        "meta_bstar": 0.0031113289,
        "meta_mean_motion_dot": 0.0003712,
        "meta_mean_motion_ddot": 0,
        "tle_line1": "1 47116U 93036BYJ 25345.00443867  .00037120  00000+0  31113-2 0  9994",
        "tle_line2": "2 47116  74.0231 244.2359 0021531 338.2820  38.4094 14.98044349594850"
      },
      "geometry": {
        "type": "Point",
        "coordinates": [
          85.54685618287519,
          -56.83053955155544
        ]
      }
    },
    {
      "type": "Feature",
      "properties": {
        "norad_id": 53093,
        "name": "COSMOS 2251 DEB",
        "group": "cosmos-2251-debris",
        "lat": -49.0449314738513,
        "lon": -78.87068673078966,
        "alt_km": 753.8699836517108,
        "timestamp": "2025-12-13T07:35:41.902905+00:00",
        "meta_object_name": "COSMOS 2251 DEB",
        "meta_object_id": "1993-036BYP",
        "meta_epoch": "2025-12-12T21:50:34.879488",
        "meta_mean_motion": 14.41883452,
        "meta_eccentricity": 0.00191816,
        "meta_inclination": 74.0364,
        "meta_ra_of_asc_node": 301.1392,
        "meta_arg_of_pericenter": 18.2217,
        "meta_mean_anomaly": 341.9622,
        "meta_ephemeris_type": 0,
        "meta_classification_type": "U",
        "meta_norad_cat_id": 53093,
        "meta_element_set_no": 999,
        "meta_rev_at_epoch": 17728,
        "meta_bstar": 0.001443976,
        "meta_mean_motion_dot": 4.713e-05,
        "meta_mean_motion_ddot": 0,
        "tle_line1": "1 53093U 93036BYP 25346.91012592  .00004713  00000+0  14440-2 0  9999",
        "tle_line2": "2 53093  74.0364 301.1392 0019181  18.2217 341.9622 14.41883452177288"
      },
      "geometry": {
        "type": "Point",
        "coordinates": [
          -78.87068673078966,
          -49.0449314738513
        ]
      }
    }
  ]
}